AO-51
1 28375U 04025K   09350.55781696  .00000012  00000-0  16633-4 0 05576
2 28375 098.0527 349.5531 0083692 292.3689 066.8642 14.40662665287217
CO-56
1 28941U 06005C   09297.68475575  .14491492  29743-5  25760-3 0  5565
2 28941 098.0955 138.9518 0011688 319.8691 040.7485 16.46998778207909
GENESAT1
1 29655U 06058C   09350.73253449  .00023260  00000-0  18201-3 0 09000
2 29655 040.0176 115.7587 0004911 043.8333 316.2871 15.70937684171131
CP3
1 31129U 07012N   09351.59387825  .00000141  00000-0  42926-4 0  4001
2 31129 097.9663 035.6531 0103364 076.8585 284.4126 14.52191534141500
CO-65
1 32785U 08021C   09351.83215884  .00000248  00000-0  38342-4 0  5537
2 32785 097.9232 054.0532 0015189 150.7703 209.4351 14.81557125 88633
KKS-1
1 33493U 09002B   09351.70056112  .00000298  00000-0  45680-4 0   327
2 33493 098.0698 104.8870 0020300 011.7725 348.3964 14.80799552 48627
SOHLA-1
1 33496U 09002E   09350.80976255  .00000030  00000-0  13229-4 0 09775
2 33496 098.0500 097.4030 0007723 064.7854 295.4146 14.69459634048098
NOAA-10
1 16969U 86073A   09351.04157716  .00000025  00000-0  28060-4 0  8765
2 16969 098.6754 016.5475 0012803 026.2597 333.9261 14.27401812209597
NOAA-11
1 19531U 88089A   09351.21980725  .00000187  00000-0  11915-3 0  8911
2 19531 098.7790 078.2999 0011116 310.0029 050.0173 14.14911148 95408
NOAA-12
1 21263U 91032A   09350.94158360  .00000015  00000-0  25236-4 0 03916
2 21263 098.7698 359.0854 0012272 340.4754 019.5954 14.25606800966431
MET-3/5
1 21655U 91056A   09350.39900956  .00000051  00000-0  10000-3 0 06962
2 21655 082.5570 077.7858 0014905 086.8069 273.4740 13.17018451881618
MET-2/21
1 22782U 93055A   09350.62715240  .00000006  00000-0 -82749-5 0  6446
2 22782 082.5491 037.2835 0021914 191.3045 168.7616 13.83640623822834
OKEAN-4
1 23317U 94066A   09350.30965075  .00000065  00000-0  49919-5 0 01016
2 23317 082.5381 164.5322 0023483 121.8759 238.4746 14.82746360819352
NOAA-14
1 23455U 94089A   09351.40021462 -.00000025  00000-0  10332-4 0  8671
2 23455 098.8954 068.2957 0009910 035.5130 324.6739 14.13774787771814
NOAA-15
1 25338U 98030A   09350.85117295  .00000159  00000-0  86830-4 0 01947
2 25338 098.6002 336.2184 0009871 243.8772 116.1400 14.24798075602786
RESURS
1 25394U 98043A   09350.12218927 -.00000033  00000-0  35837-5 0 03831
2 25394 098.3201 013.0449 0002280 052.1457 307.9931 14.24191346594291
FENGYUN1
1 25730U 99025A   09350.34486247  .00000797  00000-0  49136-3 0 09255
2 25730 098.7714 315.2109 0023768 056.8391 303.5063 14.08133113545957
