Satellite: AO-51
Catalog number: 28375
Epoch time:      09350.55781696
Element set:    0557
Inclination:      098.0527 deg
RA of node:       349.5531 deg
Eccentricity:    0.0083692
Arg of perigee:   292.3689 deg
Mean anomaly:     066.8642 deg
Mean motion:   14.40662665 rev/day
Decay rate:        1.2e-07 rev/day^2
Epoch rev:           28721
Checksum:              346

Satellite: CO-56
Catalog number: 28941
Epoch time:      09297.68475575
Element set:     556
Inclination:      098.0955 deg
RA of node:       138.9518 deg
Eccentricity:    0.0011688
Arg of perigee:   319.8691 deg
Mean anomaly:     040.7485 deg
Mean motion:   16.46998778 rev/day
Decay rate:  1.4491492e-01 rev/day^2
Epoch rev:           20790
Checksum:              407

Satellite: GENESAT1
Catalog number: 29655
Epoch time:      09350.73253449
Element set:    0900
Inclination:      040.0176 deg
RA of node:       115.7587 deg
Eccentricity:    0.0004911
Arg of perigee:   043.8333 deg
Mean anomaly:     316.2871 deg
Mean motion:   15.70937684 rev/day
Decay rate:     2.3260e-04 rev/day^2
Epoch rev:           17113
Checksum:              293

Satellite: CP3
Catalog number: 31129
Epoch time:      09351.59387825
Element set:     400
Inclination:      097.9663 deg
RA of node:       035.6531 deg
Eccentricity:    0.0103364
Arg of perigee:   076.8585 deg
Mean anomaly:     284.4126 deg
Mean motion:   14.52191534 rev/day
Decay rate:       1.41e-06 rev/day^2
Epoch rev:           14150
Checksum:              295

Satellite: CO-65
Catalog number: 32785
Epoch time:      09351.83215884
Element set:     553
Inclination:      097.9232 deg
RA of node:       054.0532 deg
Eccentricity:    0.0015189
Arg of perigee:   150.7703 deg
Mean anomaly:     209.4351 deg
Mean motion:   14.81557125 rev/day
Decay rate:       2.48e-06 rev/day^2
Epoch rev:            8863
Checksum:              316

Satellite: KKS-1
Catalog number: 33493
Epoch time:      09351.70056112
Element set:      32
Inclination:      098.0698 deg
RA of node:       104.8870 deg
Eccentricity:    0.0020300
Arg of perigee:   011.7725 deg
Mean anomaly:     348.3964 deg
Mean motion:   14.80799552 rev/day
Decay rate:       2.98e-06 rev/day^2
Epoch rev:            4862
Checksum:              300

Satellite: SOHLA-1
Catalog number: 33496
Epoch time:      09350.80976255
Element set:    0977
Inclination:      098.0500 deg
RA of node:       097.4030 deg
Eccentricity:    0.0007723
Arg of perigee:   064.7854 deg
Mean anomaly:     295.4146 deg
Mean motion:   14.69459634 rev/day
Decay rate:        3.0e-07 rev/day^2
Epoch rev:           04809
Checksum:              323

/EX
SB KEPS @ AMSAT  $ORB09351.W
Orbital Elements  09351.WEATHER

HR AMSAT ORBITAL ELEMENTS FOR WEATHER SATELLITES
FROM WA5QGD FORT WORTH,TX December 17, 2009
Send Subscribe/unsubscribe to KEPS at 
http://www.amsat.org/mailman/listinfo/keps
BID: ORB09351.W
TO ALL RADIO AMATEURS BT

Satellite: NOAA-10
Catalog number: 16969
Epoch time:      09351.04157716
Element set:     876
Inclination:      098.6754 deg
RA of node:       016.5475 deg
Eccentricity:    0.0012803
Arg of perigee:   026.2597 deg
Mean anomaly:     333.9261 deg
Mean motion:   14.27401812 rev/day
Decay rate:        2.5e-07 rev/day^2
Epoch rev:           20959
Checksum:              314

Satellite: NOAA-11
Catalog number: 19531
Epoch time:      09351.21980725
Element set:     891
Inclination:      098.7790 deg
RA of node:       078.2999 deg
Eccentricity:    0.0011116
Arg of perigee:   310.0029 deg
Mean anomaly:     050.0173 deg
Mean motion:   14.14911148 rev/day
Decay rate:       1.87e-06 rev/day^2
Epoch rev:            9540
Checksum:              294

Satellite: NOAA-12
Catalog number: 21263
Epoch time:      09350.94158360
Element set:    0391
Inclination:      098.7698 deg
RA of node:       359.0854 deg
Eccentricity:    0.0012272
Arg of perigee:   340.4754 deg
Mean anomaly:     019.5954 deg
Mean motion:   14.25606800 rev/day
Decay rate:        1.5e-07 rev/day^2
Epoch rev:           96643
Checksum:              315

Satellite: MET-3/5
Catalog number: 21655
Epoch time:      09350.39900956
Element set:    0696
Inclination:      082.5570 deg
RA of node:       077.7858 deg
Eccentricity:    0.0014905
Arg of perigee:   086.8069 deg
Mean anomaly:     273.4740 deg
Mean motion:   13.17018451 rev/day
Decay rate:        5.1e-07 rev/day^2
Epoch rev:           88161
Checksum:              330

Satellite: MET-2/21
Catalog number: 22782
Epoch time:      09350.62715240
Element set:     644
Inclination:      082.5491 deg
RA of node:       037.2835 deg
Eccentricity:    0.0021914
Arg of perigee:   191.3045 deg
Mean anomaly:     168.7616 deg
Mean motion:   13.83640623 rev/day
Decay rate:        6.0e-08 rev/day^2
Epoch rev:           82283
Checksum:              293

Satellite: OKEAN-4
Catalog number: 23317
Epoch time:      09350.30965075
Element set:    0101
Inclination:      082.5381 deg
RA of node:       164.5322 deg
Eccentricity:    0.0023483
Arg of perigee:   121.8759 deg
Mean anomaly:     238.4746 deg
Mean motion:   14.82746360 rev/day
Decay rate:        6.5e-07 rev/day^2
Epoch rev:           81935
Checksum:              300

Satellite: NOAA-14
Catalog number: 23455
Epoch time:      09351.40021462
Element set:     867
Inclination:      098.8954 deg
RA of node:       068.2957 deg
Eccentricity:    0.0009910
Arg of perigee:   035.5130 deg
Mean anomaly:     324.6739 deg
Mean motion:   14.13774787 rev/day
Decay rate:       -2.5e-07 rev/day^2
Epoch rev:           77181
Checksum:              324

Satellite: NOAA-15
Catalog number: 25338
Epoch time:      09350.85117295
Element set:    0194
Inclination:      098.6002 deg
RA of node:       336.2184 deg
Eccentricity:    0.0009871
Arg of perigee:   243.8772 deg
Mean anomaly:     116.1400 deg
Mean motion:   14.24798075 rev/day
Decay rate:       1.59e-06 rev/day^2
Epoch rev:           60278
Checksum:              314

Satellite: RESURS
Catalog number: 25394
Epoch time:      09350.12218927
Element set:    0383
Inclination:      098.3201 deg
RA of node:       013.0449 deg
Eccentricity:    0.0002280
Arg of perigee:   052.1457 deg
Mean anomaly:     307.9931 deg
Mean motion:   14.24191346 rev/day
Decay rate:       -3.3e-07 rev/day^2
Epoch rev:           59429
Checksum:              279

Satellite: FENGYUN1
Catalog number: 25730
Epoch time:      09350.34486247
Element set:    0925
Inclination:      098.7714 deg
RA of node:       315.2109 deg
Eccentricity:    0.0023768
Arg of perigee:   056.8391 deg
Mean anomaly:     303.5063 deg
Mean motion:   14.08133113 rev/day
Decay rate:       7.97e-06 rev/day^2
Epoch rev:           54595
Checksum:              309

